IRIDIUM 7               
1 24793U 97020B   24347.75424136  .00000697  00000+0  23481-3 0  9997
2 24793  86.3961 254.9897 0002279  75.9051 284.2399 14.35657427445140
IRIDIUM 5               
1 24795U 97020D   24347.92038306  .00006251  00000+0  54516-3 0  9993
2 24795  86.3915 169.3951 0116859  85.6673 275.7897 14.91455523457707
IRIDIUM 4               
1 24796U 97020E   24347.78577805  .00000728  00000+0  24136-3 0  9998
2 24796  86.3960 251.9746 0002315  82.0555 278.0905 14.36571219445702
IRIDIUM 914             
1 24836U 97030A   24347.81952238  .00000888  00000+0  27303-3 0  9991
2 24836  86.3936 261.1270 0003824  96.6015 263.5620 14.40527986580297
IRIDIUM 16              
1 24841U 97030F   24347.77957123  .00000873  00000+0  28016-3 0  9996
2 24841  86.4021 283.5971 0002043  23.6638 336.4654 14.38390854440200
IRIDIUM 911             
1 24842U 97030G   24347.80740347  .00001263  00000+0  34029-3 0  9994
2 24842  86.4445 282.5457 0014684   8.7522 351.3934 14.47193089448126
IRIDIUM 17              
1 24870U 97034B   24347.65160302  .00000943  00000+0  30855-3 0  9996
2 24870  86.3944 313.2209 0000666  88.0489 272.0784 14.37491911436780
IRIDIUM 920             
1 24871U 97034C   24347.82647044  .00000984  00000+0  29877-3 0  9996
2 24871  86.3958 292.7933 0011075 348.6392  11.4556 14.41199225439733
